NAME
1 38602U 08011AZ  15129.40859259  .00002553  00000-0  10342-1 0  9995
2 38602 048.8790 279.5279 6500814 130.9856 240.9502 03.14882103 52182
NAME
1 38603U 08011BA  15129.69609910  .00002269  00000-0  72248-2 0  9992
2 38603 049.7500 297.6364 6516130 083.3001 341.7760 03.14793636 47822
NAME
1 38609U 08011BG  15129.26959887  .00000370  00000-0  47312-2 0  9997
2 38609 048.5173 283.7745 6435794 137.4593 296.1816 03.14546446 49522
NAME
1 38613U 08011BL  15128.40520876  .00004308  00000-0  10871-1 0  9993
2 38613 048.8494 265.2985 6498735 144.0196 353.5435 03.18588836 39442
NAME
1 38624U 08011BX  15129.57385104  .00000251  00000-0  26680-2 0  9996
2 38624 048.7611 291.8897 6477831 122.9583 330.7713 03.12105310 39925
NAME
1 38625U 08011BY  15129.56968709  .00000434  00000-0  21161-2 0  9996
2 38625 049.1055 272.5061 6460078 129.6334 307.9033 03.20094661772598
NAME
1 38631U 08011CE  15128.95905088  .00001015  00000-0  86001-2 0  9996
2 38631 049.1902 312.9057 6447309 084.8620 005.5927 03.15744490 46270
NAME
1 38636U 08011CK  15129.72843009  .00000865  00000-0  45184-2 0  9990
2 38636 049.2833 300.0043 6531161 098.2112 358.9301 03.09555053 45893
NAME
1 38642U 08011CR  15129.76467625 -.00000353  00000-0 -48463-2 0  9994
2 38642 048.7729 321.3758 6431751 094.3851 359.7834 03.08224846 45610
NAME
1 38643U 08011CS  15129.78874063  .00010719  00000-0  46139-1 0  9997
2 38643 049.6039 325.6673 6506772 064.4534 004.2763 03.13435330 45947
NAME
1 38652U 12036A   15129.08927909  .00000026  00000-0  00000+0 0  9995
2 38652 000.0669 270.5952 0002357 135.6917 217.4229 01.00272393 10382
NAME
1 38658U 09072F   15129.85573119  .00000196  00000-0  70238-3 0  9994
2 38658 100.2318 122.0853 0136845 140.7763 337.1264 13.04789190248937
NAME
1 38660U 09072H   15129.18588172  .00000150  00000-0  67490-3 0  9994
2 38660 100.4366 108.3834 0155292 243.3160 175.3960 12.92248310246145
NAME
1 38661U 12029C   15129.09278445  .00000104  00000-0  35786-3 0  9992
2 38661 100.2088 242.7298 0123349 317.4530 041.7078 13.19059620138559
NAME
1 38664U 12029F   15129.08214781  .00000052  00000-0  25522-3 0  9996
2 38664 100.1686 227.6486 0136327 331.0479 028.3119 13.11801028140267
NAME
1 38673U 86010H   15128.24288067  .00002260  00000-0  32685-2 0  9992
2 38673 030.2574 181.3121 6796885 077.4558 345.7297 02.82994852 90883
NAME
1 38682U 79009E   15129.16741382 -.00000080  00000-0  00000+0 0  9990
2 38682 007.8861 184.9549 3572443 017.4586 352.3740 01.68542958 42365
NAME
1 38684U 80018E   15129.73426871 -.00000130  00000-0  00000+0 0  9996
2 38684 009.1436 323.5843 4544507 107.7141 305.6438 01.77215899 34681
NAME
1 38685U 80018F   15128.88738944 -.00000142  00000-0  00000+0 0  9992
2 38685 009.4693 351.4283 4456749 049.7301 341.5838 01.76230532 47295
NAME
1 38687U 79101W   15129.39273576 -.00000035  00000-0  00000+0 0  9998
2 38687 008.2891 188.6822 4748565 284.3646 029.0468 01.80211445 42000
NAME
1 38707U 12039A   15129.13830826  .00002416  00000-0  11630-3 0  9996
2 38707 097.4718 044.8415 0001558 077.1561 062.8584 15.19723689155088
NAME
1 38707U 12039A   15129.45813433  .00002424  00000-0  11665-3 0  9993
2 38707 097.4716 045.1580 0001542 079.0673 009.6031 15.19725321155138
NAME
1 38707U 12039A   15129.78663578  .00002467  00000-0  11868-3 0  9994
2 38707 097.4715 045.4833 0001532 077.7395 007.0239 15.19727379155188
NAME
1 38708U 12039B   15129.15118948  .00002580  00000-0  12472-3 0  9990
2 38708 097.4311 043.5029 0001944 083.1001 047.8327 15.19509396155030
NAME
1 38708U 12039B   15129.47242574  .00002577  00000-0  12456-3 0  9996
2 38708 097.4311 043.8188 0001938 085.0943 001.9548 15.19510962155080
NAME
1 38708U 12039B   15129.80144927  .00002646  00000-0  12782-3 0  9995
2 38708 097.4310 044.1426 0001955 084.2471 001.4948 15.19513238155138
NAME
1 38709U 12039C   15128.90346468  .00000070  00000-0  50858-4 0  9996
2 38709 098.9949 072.4109 0010336 307.2064 052.8171 14.23835370145218
NAME
1 38709U 12039C   15129.39537015  .00000062  00000-0  47427-4 0  9999
2 38709 098.9951 072.9142 0010316 305.7049 054.3167 14.23835373145289
NAME
1 38709U 12039C   15129.74673120  .00000068  00000-0  49874-4 0  9990
2 38709 098.9951 073.2734 0010356 304.8318 055.1896 14.23835526145337
NAME
1 38710U 12039D   15129.37035553  .00010439  00000-0  30386-3 0  9993
2 38710 097.4786 053.7757 0003919 098.3298 261.8389 15.35601091155680
NAME
1 38711U 12039E   15129.49157821  .00000136  00000-0  79326-4 0  9991
2 38711 098.9902 072.7244 0010970 309.3054 050.7152 14.24041560145306
NAME
1 38714U 99025ETF 15129.32331735  .00012503  00000-0  34406-2 0  9993
2 38714 097.8801 153.4523 0251947 059.0381 303.5299 14.29957068236918
NAME
1 38717U 99025ETJ 15126.81226517  .00002004  00000-0  12823-2 0  9992
2 38717 098.9717 068.7098 0072033 015.4623 012.5808 14.03278729232478
NAME
1 38720U 99025ETM 15129.27637880  .00006734  00000-0  35036-2 0  9993
2 38720 099.1260 149.8266 0061668 050.0571 007.8207 14.13970575254399
NAME
1 38723U 99025ETQ 15129.82511782  .00003725  00000-0  15578-2 0  9995
2 38723 099.4772 359.3849 0047177 017.8330 047.0906 14.26170866217548
NAME
1 38729U 99025ETW 15129.05549504  .00000960  00000-0  68115-3 0  9993
2 38729 099.1069 081.9583 0096062 147.4225 213.2100 13.97893091290311
NAME
1 38730U 12040A   15129.08956876  .00000100  00000-0  10000-3 0  9990
2 38730 000.1132 268.3482 0002755 276.4023 090.8829 01.00269035 10302
NAME
1 38732U 94089D   15129.86372004  .00001711  00000-0  85197-3 0  9994
2 38732 098.7669 215.8940 0015674 206.5329 153.5045 14.18245012143985
NAME
1 38733U 12041A   15128.98840046  .00000034  00000-0  17563-3 0  9990
2 38733 082.4731 084.5294 0016940 271.8066 088.1068 12.42360307126023
NAME
1 38733U 12041A   15129.39105633  .00000034  00000-0  17563-3 0  9992
2 38733 082.4727 084.2783 0016957 270.7133 089.2001 12.42360284126077
NAME
1 38733U 12041A   15129.87424330  .00000034  00000-0  17563-3 0  9993
2 38733 082.4727 083.9771 0016944 269.6956 090.2176 12.42360284126138
NAME
1 38734U 12041B   15129.03483898  .00000024  00000-0  10000-3 0  9994
2 38734 082.4724 083.8992 0017260 260.3378 099.5743 12.42857782126088
NAME
1 38734U 12041B   15129.43733407  .00000024  00000-0  10000-3 0  9992
2 38734 082.4722 083.6481 0017274 259.4855 100.4277 12.42857765126132
NAME
1 38734U 12041B   15129.83982893  .00000024  00000-0  10000-3 0  9991
2 38734 082.4723 083.3973 0017248 258.6914 101.2217 12.42857741126186
NAME
1 38735U 12041C   15128.98008558  .00000040  00000-0  21992-3 0  9994
2 38735 082.4747 084.4236 0015490 267.1235 092.8063 12.42567501126046
NAME
1 38735U 12041C   15129.38267464  .00000040  00000-0  21992-3 0  9992
2 38735 082.4737 084.1719 0015518 266.2721 093.6578 12.42567439126094
NAME
1 38735U 12041C   15129.86578138  .00000040  00000-0  21992-3 0  9998
2 38735 082.4736 083.8709 0015507 265.0816 094.8492 12.42567435126159
NAME
1 38736U 12041D   15128.98197233  .00000010  00000-0  00000+0 0  9994
2 38736 082.4792 084.4024 0019690 261.1549 098.7299 12.42894307126065
NAME
1 38736U 12041D   15129.38445542  .00000010  00000-0  00000+0 0  9998
2 38736 082.4789 084.1512 0019699 260.1867 099.6986 12.42894281126111
NAME
1 38736U 12041D   15129.86743517  .00000010  00000-0  00000+0 0  9994
2 38736 082.4786 083.8501 0019685 259.2131 100.6729 12.42894267126178
NAME
1 38737U 12041E   15129.16472656  .00000027  00000-0  55846-4 0  9992
2 38737 082.4811 036.5122 0226351 049.4573 312.5999 12.81797093130069
NAME
1 38741U 12043B   15128.95902831  .00000147  00000-0  10000-3 0  9993
2 38741 000.0627 090.5185 0002327 332.2775 179.9145 01.00270964 10164
NAME
1 38742U 12043C   15129.05843555  .00000897  00000-0  57148-3 0  9999
2 38742 006.0104 032.2230 7205181 296.3894 008.6904 02.35841959 23383
NAME
1 38742U 12043C   15129.05844058  .00000596  00000-0  41676-3 0  9993
2 38742 006.0105 032.2223 7205207 296.3910 008.6894 02.35840515 23389
NAME
1 38743U 12043D   15128.97827130  .00131802  00000-0  13061-1 0  9996
2 38743 006.0982 320.6697 6643721 077.0645 344.8334 03.14531257 26405
NAME
1 38743U 12043D   15129.29604792  .00137069  00000-0  13598-1 0  9995
2 38743 006.0979 320.4775 6643047 077.4470 344.7056 03.14621515 26415
NAME
1 38744U 12044A   15129.78482726  .00064500  36625-5  12944-2 0  9993
2 38744 049.9156 289.6809 1932656 270.9914 067.1395 11.63743103108580
NAME
1 38745U 12044B   15129.19258754  .00017865  26705-5  50553-3 0  9990
2 38745 049.8930 107.3694 2396997 123.6690 261.6140 10.63339763104303
NAME
1 38746U 12044C   15129.63974438  .00008598  00000-0  55306-3 0  9993
2 38746 049.6807 181.6561 2488539 085.0311 302.7117 10.33106045102523
NAME
1 38747U 12044D   15129.14884407  .00099037  48544-5  18020-2 0  9995
2 38747 049.8647 216.7577 1806522 334.4938 017.6474 11.91681413110187
NAME
1 38749U 12045A   15129.22710868 -.00000293  00000-0  00000+0 0  9999
2 38749 000.0238 019.9890 0002155 031.6520 198.8518 01.00270419  9960
NAME
1 38755U 12047A   15129.09967002  .00000292  00000-0  72572-4 0  9993
2 38755 098.1553 196.4281 0001138 078.5705 281.5628 14.58571116141688
NAME
1 38755U 12047A   15129.44267428  .00000311  00000-0  76670-4 0  9992
2 38755 098.1553 196.7648 0001121 078.1769 281.9562 14.58571567141733
NAME
1 38755U 12047A   15129.78567860  .00000312  00000-0  76778-4 0  9992
2 38755 098.1550 197.1014 0001118 078.8166 281.3153 14.58571816141788
NAME
1 38756U 12047B   15129.14596935  .00000780  00000-0  12158-3 0  9998
2 38756 098.2183 227.7749 0013556 065.8145 294.4495 14.75761850143244
NAME
1 38756U 12047B   15129.48498036  .00000801  00000-0  12466-3 0  9994
2 38756 098.2183 228.1195 0013486 065.1036 295.1587 14.75762660143293
NAME
1 38756U 12047B   15129.75618917  .00000811  00000-0  12607-3 0  9994
2 38756 098.2184 228.3953 0013487 064.5800 295.6813 14.75763253143332
